CCSDS_OMM_VERS = 2.0
CREATION_DATE  = 
ORIGINATOR     = 

OBJECT_NAME    = STARLINK-35574
OBJECT_ID      = 2025-236AB
CENTER_NAME    = EARTH
REF_FRAME      = TEME
TIME_SYSTEM    = UTC
MEAN_ELEMENT_THEORY = SGP/SGP4

EPOCH          = 2025-11-05T22:00:01.999584
MEAN_MOTION    = 15.74121140
ECCENTRICITY   = .00010664
INCLINATION    = 53.1573
RA_OF_ASC_NODE = 322.8354
ARG_OF_PERICENTER = 95.8654
MEAN_ANOMALY   = 53.1760

EPHEMERIS_TYPE = 0
CLASSIFICATION_TYPE = U
NORAD_CAT_ID   = 66111
ELEMENT_SET_NO = 999
REV_AT_EPOCH   = 389
BSTAR          = .61790695E-3
MEAN_MOTION_DOT = .90575E-3
MEAN_MOTION_DDOT = 0

CCSDS_OMM_VERS = 2.0
CREATION_DATE  = 
ORIGINATOR     = 

OBJECT_NAME    = STARLINK-35531
OBJECT_ID      = 2025-236AC
CENTER_NAME    = EARTH
REF_FRAME      = TEME
TIME_SYSTEM    = UTC
MEAN_ELEMENT_THEORY = SGP/SGP4

EPOCH          = 2025-11-05T22:00:01.999584
MEAN_MOTION    = 15.74133193
ECCENTRICITY   = .00009828
INCLINATION    = 53.1573
RA_OF_ASC_NODE = 322.8273
ARG_OF_PERICENTER = 74.0089
MEAN_ANOMALY   = 78.8651

EPHEMERIS_TYPE = 0
CLASSIFICATION_TYPE = U
NORAD_CAT_ID   = 66112
ELEMENT_SET_NO = 999
REV_AT_EPOCH   = 395
BSTAR          = .37593342E-3
MEAN_MOTION_DOT = .54652E-3
MEAN_MOTION_DDOT = 0

CCSDS_OMM_VERS = 2.0
CREATION_DATE  = 
ORIGINATOR     = 

OBJECT_NAME    = STARLINK-35491
OBJECT_ID      = 2025-236AD
CENTER_NAME    = EARTH
REF_FRAME      = TEME
TIME_SYSTEM    = UTC
MEAN_ELEMENT_THEORY = SGP/SGP4

EPOCH          = 2025-11-05T22:00:01.999584
MEAN_MOTION    = 15.74138531
ECCENTRICITY   = .00013266
INCLINATION    = 53.1573
RA_OF_ASC_NODE = 322.8315
ARG_OF_PERICENTER = 85.7498
MEAN_ANOMALY   = 65.1991

EPHEMERIS_TYPE = 0
CLASSIFICATION_TYPE = U
NORAD_CAT_ID   = 66113
ELEMENT_SET_NO = 999
REV_AT_EPOCH   = 395
BSTAR          = .42192326E-3
MEAN_MOTION_DOT = .61479E-3
MEAN_MOTION_DDOT = 0

CCSDS_OMM_VERS = 2.0
CREATION_DATE  = 
ORIGINATOR     = 

OBJECT_NAME    = STARLINK-35496
OBJECT_ID      = 2025-237A
CENTER_NAME    = EARTH
REF_FRAME      = TEME
TIME_SYSTEM    = UTC
MEAN_ELEMENT_THEORY = SGP/SGP4

EPOCH          = 2025-11-05T22:00:01.999584
MEAN_MOTION    = 15.74106687
ECCENTRICITY   = .00009232
INCLINATION    = 53.1598
RA_OF_ASC_NODE = 262.5952
ARG_OF_PERICENTER = 119.0838
MEAN_ANOMALY   = 3.7983

EPHEMERIS_TYPE = 0
CLASSIFICATION_TYPE = U
NORAD_CAT_ID   = 66114
ELEMENT_SET_NO = 999
REV_AT_EPOCH   = 356
BSTAR          = .97096797E-3
MEAN_MOTION_DOT = .143505E-2
MEAN_MOTION_DDOT = 0

CCSDS_OMM_VERS = 2.0
CREATION_DATE  = 
ORIGINATOR     = 

OBJECT_NAME    = STARLINK-35428
OBJECT_ID      = 2025-237B
CENTER_NAME    = EARTH
REF_FRAME      = TEME
TIME_SYSTEM    = UTC
MEAN_ELEMENT_THEORY = SGP/SGP4

EPOCH          = 2025-11-05T22:00:01.999584
MEAN_MOTION    = 15.74167845
ECCENTRICITY   = .00011236
INCLINATION    = 53.1597
RA_OF_ASC_NODE = 262.5916
ARG_OF_PERICENTER = 72.6769
MEAN_ANOMALY   = 52.1095

EPHEMERIS_TYPE = 0
CLASSIFICATION_TYPE = U
NORAD_CAT_ID   = 66115
ELEMENT_SET_NO = 999
REV_AT_EPOCH   = 356
BSTAR          = -.23677343E-4
MEAN_MOTION_DOT = -.4092E-4
MEAN_MOTION_DDOT = 0

CCSDS_OMM_VERS = 2.0
CREATION_DATE  = 
ORIGINATOR     = 

OBJECT_NAME    = STARLINK-35573
OBJECT_ID      = 2025-237C
CENTER_NAME    = EARTH
REF_FRAME      = TEME
TIME_SYSTEM    = UTC
MEAN_ELEMENT_THEORY = SGP/SGP4

EPOCH          = 2025-11-05T22:00:01.999584
MEAN_MOTION    = 15.74098840
ECCENTRICITY   = .00012403
INCLINATION    = 53.1596
RA_OF_ASC_NODE = 262.5874
ARG_OF_PERICENTER = 70.5683
MEAN_ANOMALY   = 56.1899

EPHEMERIS_TYPE = 0
CLASSIFICATION_TYPE = U
NORAD_CAT_ID   = 66116
ELEMENT_SET_NO = 999
REV_AT_EPOCH   = 356
BSTAR          = .48305933E-3
MEAN_MOTION_DOT = .70433E-3
MEAN_MOTION_DDOT = 0

CCSDS_OMM_VERS = 2.0
CREATION_DATE  = 
ORIGINATOR     = 

OBJECT_NAME    = STARLINK-35572
OBJECT_ID      = 2025-237D
CENTER_NAME    = EARTH
REF_FRAME      = TEME
TIME_SYSTEM    = UTC
MEAN_ELEMENT_THEORY = SGP/SGP4

EPOCH          = 2025-11-05T22:00:01.999584
MEAN_MOTION    = 15.74111493
ECCENTRICITY   = .00012906
INCLINATION    = 53.1595
RA_OF_ASC_NODE = 262.5796
ARG_OF_PERICENTER = 114.2653
MEAN_ANOMALY   = 16.2809

EPHEMERIS_TYPE = 0
CLASSIFICATION_TYPE = U
NORAD_CAT_ID   = 66117
ELEMENT_SET_NO = 999
REV_AT_EPOCH   = 356
BSTAR          = .85973114E-3
MEAN_MOTION_DOT = .126765E-2
MEAN_MOTION_DDOT = 0

CCSDS_OMM_VERS = 2.0
CREATION_DATE  = 
ORIGINATOR     = 

OBJECT_NAME    = STARLINK-35468
OBJECT_ID      = 2025-237E
CENTER_NAME    = EARTH
REF_FRAME      = TEME
TIME_SYSTEM    = UTC
MEAN_ELEMENT_THEORY = SGP/SGP4

EPOCH          = 2025-11-05T22:00:01.999584
MEAN_MOTION    = 15.74084556
ECCENTRICITY   = .00011287
INCLINATION    = 53.1596
RA_OF_ASC_NODE = 262.5834
ARG_OF_PERICENTER = 70.1211
MEAN_ANOMALY   = 58.5626

EPHEMERIS_TYPE = 0
CLASSIFICATION_TYPE = U
NORAD_CAT_ID   = 66118
ELEMENT_SET_NO = 999
REV_AT_EPOCH   = 356
BSTAR          = .56769229E-3
MEAN_MOTION_DOT = .82956E-3
MEAN_MOTION_DDOT = 0

CCSDS_OMM_VERS = 2.0
CREATION_DATE  = 
ORIGINATOR     = 

OBJECT_NAME    = STARLINK-35547
OBJECT_ID      = 2025-237F
CENTER_NAME    = EARTH
REF_FRAME      = TEME
TIME_SYSTEM    = UTC
MEAN_ELEMENT_THEORY = SGP/SGP4

EPOCH          = 2025-11-05T22:00:01.999584
MEAN_MOTION    = 15.74219557
ECCENTRICITY   = .00014581
INCLINATION    = 53.1588
RA_OF_ASC_NODE = 262.5670
ARG_OF_PERICENTER = 101.8175
MEAN_ANOMALY   = 34.4411

EPHEMERIS_TYPE = 0
CLASSIFICATION_TYPE = U
NORAD_CAT_ID   = 66119
ELEMENT_SET_NO = 999
REV_AT_EPOCH   = 356
BSTAR          = -.70096784E-3
MEAN_MOTION_DOT = -.102192E-2
MEAN_MOTION_DDOT = 0

CCSDS_OMM_VERS = 2.0
CREATION_DATE  = 
ORIGINATOR     = 

OBJECT_NAME    = STARLINK-35553
OBJECT_ID      = 2025-237G
CENTER_NAME    = EARTH
REF_FRAME      = TEME
TIME_SYSTEM    = UTC
MEAN_ELEMENT_THEORY = SGP/SGP4

EPOCH          = 2025-11-05T22:00:01.999584
MEAN_MOTION    = 15.74186745
ECCENTRICITY   = .00011848
INCLINATION    = 53.1595
RA_OF_ASC_NODE = 262.5757
ARG_OF_PERICENTER = 77.5935
MEAN_ANOMALY   = 54.8447

EPHEMERIS_TYPE = 0
CLASSIFICATION_TYPE = U
NORAD_CAT_ID   = 66120
ELEMENT_SET_NO = 999
REV_AT_EPOCH   = 356
BSTAR          = -.21787759E-3
MEAN_MOTION_DOT = -.32412E-3
MEAN_MOTION_DDOT = 0

CCSDS_OMM_VERS = 2.0
CREATION_DATE  = 
ORIGINATOR     = 

OBJECT_NAME    = STARLINK-35631
OBJECT_ID      = 2025-237H
CENTER_NAME    = EARTH
REF_FRAME      = TEME
TIME_SYSTEM    = UTC
MEAN_ELEMENT_THEORY = SGP/SGP4

EPOCH          = 2025-11-05T22:00:01.999584
MEAN_MOTION    = 15.74157258
ECCENTRICITY   = .00012123
INCLINATION    = 53.1596
RA_OF_ASC_NODE = 262.5703
ARG_OF_PERICENTER = 85.1180
MEAN_ANOMALY   = 49.2463

EPHEMERIS_TYPE = 0
CLASSIFICATION_TYPE = U
NORAD_CAT_ID   = 66121
ELEMENT_SET_NO = 999
REV_AT_EPOCH   = 356
BSTAR          = .27143045E-3
MEAN_MOTION_DOT = .39253E-3
MEAN_MOTION_DDOT = 0

CCSDS_OMM_VERS = 2.0
CREATION_DATE  = 
ORIGINATOR     = 

OBJECT_NAME    = STARLINK-35653
OBJECT_ID      = 2025-237J
CENTER_NAME    = EARTH
REF_FRAME      = TEME
TIME_SYSTEM    = UTC
MEAN_ELEMENT_THEORY = SGP/SGP4

EPOCH          = 2025-11-05T22:00:01.999584
MEAN_MOTION    = 15.74195685
ECCENTRICITY   = .0001116
INCLINATION    = 53.1597
RA_OF_ASC_NODE = 262.5630
ARG_OF_PERICENTER = 89.9215
MEAN_ANOMALY   = 48.2715

EPHEMERIS_TYPE = 0
CLASSIFICATION_TYPE = U
NORAD_CAT_ID   = 66122
ELEMENT_SET_NO = 999
REV_AT_EPOCH   = 356
BSTAR          = -.38741461E-3
MEAN_MOTION_DOT = -.57001E-3
MEAN_MOTION_DDOT = 0

