STARLINK-35574          
1 66111U 25236AB  25309.91668981  .00090575  00000+0  61791-3 0  9992
2 66111  53.1573 322.8354 0001066  95.8654  53.1760 15.74121140  3896
STARLINK-35531          
1 66112U 25236AC  25309.91668981  .00054652  00000+0  37593-3 0  9992
2 66112  53.1573 322.8273 0000982  74.0089  78.8651 15.74133193  3955
STARLINK-35491          
1 66113U 25236AD  25309.91668981  .00061479  00000+0  42192-3 0  9999
2 66113  53.1573 322.8315 0001326  85.7498  65.1991 15.74138531  3956
STARLINK-35496          
1 66114U 25237A   25309.91668981  .00143505  00000+0  97097-3 0  9996
2 66114  53.1598 262.5952 0000923 119.0838   3.7983 15.74106687  3565
STARLINK-35428          
1 66115U 25237B   25309.91668981 -.00004092  00000+0 -23677-4 0  9990
2 66115  53.1597 262.5916 0001123  72.6769  52.1095 15.74167845  3560
STARLINK-35573          
1 66116U 25237C   25309.91668981  .00070433  00000+0  48306-3 0  9996
2 66116  53.1596 262.5874 0001240  70.5683  56.1899 15.74098840  3569
STARLINK-35572          
1 66117U 25237D   25309.91668981  .00126765  00000+0  85973-3 0  9998
2 66117  53.1595 262.5796 0001290 114.2653  16.2809 15.74111493  3568
STARLINK-35468          
1 66118U 25237E   25309.91668981  .00082956  00000+0  56769-3 0  9993
2 66118  53.1596 262.5834 0001128  70.1211  58.5626 15.74084556  3568
STARLINK-35547          
1 66119U 25237F   25309.91668981 -.00102192  00000+0 -70097-3 0  9991
2 66119  53.1588 262.5670 0001458 101.8175  34.4411 15.74219557  3561
STARLINK-35553          
1 66120U 25237G   25309.91668981 -.00032412  00000+0 -21788-3 0  9993
2 66120  53.1595 262.5757 0001184  77.5935  54.8447 15.74186745  3563
STARLINK-35631          
1 66121U 25237H   25309.91668981  .00039253  00000+0  27143-3 0  9993
2 66121  53.1596 262.5703 0001212  85.1180  49.2463 15.74157258  3568
STARLINK-35653          
1 66122U 25237J   25309.91668981 -.00057001  00000+0 -38741-3 0  9993
2 66122  53.1597 262.5630 0001116  89.9215  48.2715 15.74195685  3568
